ZHONGXING-2C            
1 41021U 15063A   26161.50296118 -.00000306  00000+0  00000+0 0  9999
2 41021   0.2554  90.1143 0007455  97.5928 355.6508  1.00274320 38917
GSAT-15                 
1 41028U 15065A   26160.36036365 -.00000241  00000+0  00000+0 0  9995
2 41028   0.0513 110.7137 0003923 328.9417  41.3237  1.00270540 38726
BADR-7 (ARABSAT-6B)     
1 41029U 15065B   26161.55889796  .00000162  00000+0  00000+0 0  9993
2 41029   0.0341 233.8502 0003474 325.2555 287.0007  1.00271221 38702
LAOSAT 1                
1 41034U 15067A   26161.49975120 -.00000325  00000+0  00000+0 0  9993
2 41034   0.0394 177.6609 0002394 217.2310 172.3915  1.00273012 38791
TELSTAR 12V             
1 41036U 15068A   26160.41019970 -.00000102  00000+0  00000+0 0  9992
2 41036   0.0235  65.7170 0002305  10.9367 313.8139  1.00271046 38547
ELEKTRO-L 2             
1 41105U 15074A   26161.05176068 -.00000102  00000+0  00000+0 0  9999
2 41105   6.6749  70.6113 0000880 278.5236 273.4303  1.00271662 38437
EXPRESS-AMU1            
1 41191U 15082A   26161.56097797  .00000173  00000+0  00000+0 0  9997
2 41191   0.0181   1.0619 0002706  80.6942  55.2042  1.00270718 38206
GAOFEN-4                
1 41194U 15083A   26161.63941208 -.00000317  00000+0  00000+0 0  9995
2 41194   0.3391  83.8017 0004174 110.8931  40.2058  1.00272666 38463
BELINTERSAT-1           
1 41238U 16001A   26161.52499587  .00000125  00000+0  00000+0 0  9997
2 41238   0.0489 120.1871 0001980 286.0943  93.0989  1.00270023 38173
IRNSS-1E                
1 41241U 16003A   26160.64908404 -.00000299  00000+0  00000+0 0  9991
2 41241  33.2186  59.8594 0017926 179.3195   4.1979  1.00268584 38002
EUTELSAT 9B             
1 41310U 16005A   26161.55560462  .00000079  00000+0  00000+0 0  9994
2 41310   0.0636  73.1457 0001718 333.6273  61.1541  1.00272792 38051
SES-9                   
1 41380U 16013A   26160.07805059 -.00000329  00000+0  00000+0 0  9999
2 41380   0.0108 336.9667 0001990 107.7708 309.1219  1.00273663 37357
EUTELSAT 65 WEST A      
1 41382U 16014A   26161.54092894 -.00000259  00000+0  00000+0 0  9992
2 41382   0.0515  12.6928 0002173  57.3562 318.4040  1.00271604 37450
IRNSS-1F                
1 41384U 16015A   26161.56019796  .00000175  00000+0  00000+0 0  9993
2 41384   5.3324  96.9306 0016569 186.6446 209.6470  1.00279296 37604
BEIDOU-2 IGSO-6         
1 41434U 16021A   26159.99654288 -.00000154  00000+0  00000+0 0  9999
2 41434  60.2137  38.1225 0057118 231.5364  79.8340  1.00261117 37396
IRNSS-1G                
1 41469U 16027A   26161.29431588 -.00000317  00000+0  00000+0 0  9996
2 41469   5.1812  97.6325 0007507 353.2173  43.3330  1.00269562 37117
JCSAT-2B                
1 41471U 16028A   26160.72883587 -.00000148  00000+0  00000+0 0  9999
2 41471   0.0181 343.7786 0000778 117.9993 212.7061  1.00269565 37056
THAICOM 8               
1 41552U 16031A   26161.45739475 -.00000104  00000+0  00000+0 0  9992
2 41552   0.0698  48.3134 0003617   9.6365  84.0609  1.00270144 36657
INTELSAT 31 (IS-31)     
1 41581U 16035A   26161.53486223 -.00000133  00000+0  00000+0 0  9999
2 41581   0.0159 267.2572 0001005 335.2563 113.8830  1.00269670 36611
BEIDOU-2 G7             
1 41586U 16037A   26161.66318862 -.00000336  00000+0  00000+0 0  9998
2 41586   1.7027  69.2625 0007100   3.2654 175.7564  1.00267694  6827
ABS-2A (MONGOLSAT-1)    
1 41588U 16038A   26160.85567294  .00000000  00000+0  00000+0 0  9993
2 41588   0.0180 325.8688 0001258  57.0366 258.1105  1.00267595 36635
EUTELSAT 117 WEST B     
1 41589U 16038B   26160.03340278  .00000004  00000+0  00000+0 0  9999
2 41589   0.0422 159.6913 0000345 138.3370 214.4010  1.00276750 36580
BRISAT                  
1 41591U 16039A   26160.94199983  .00000000  00000+0  00000+0 0  9994
2 41591   0.0231 320.1453 0001994 118.8641 308.9105  1.00268701 36536
ECHOSTAR 18             
1 41592U 16039B   26160.04450314 -.00000265  00000+0  00000+0 0  9998
2 41592   0.0178 340.8727 0001393 102.1330 129.0878  1.00271708 36545
MUOS-5                  
1 41622U 16041A   26161.53321557 -.00000096  00000+0  00000+0 0  9998
2 41622   2.2188 301.5181 0197085 260.8783 143.2175  1.00271089 37024
TIANTONG-1 1            
1 41725U 16048A   26161.62270910 -.00000302  00000+0  00000+0 0  9995
2 41725   3.8360  43.3545 0005952  43.9245 137.2957  1.00269805 36209
JCSAT-16                
1 41729U 16050A   26160.22775962 -.00000234  00000+0  00000+0 0  9998
2 41729   0.0177 356.2594 0000921  90.5519  36.7275  1.00270108 35990
USA 270                 
1 41744U 16052A   26159.09509409  .00000095  00000+0  00000+0 0  9995
2 41744   4.1755  77.3049 0008515 337.9683  59.8197  1.00284145 28040
USA 271                 
1 41745U 16052B   26158.79771956 -.00000344  00000+0  00000+0 0  9998
2 41745   4.1460  77.3775 0010783 157.2143  71.4983  1.00262239 27822
INTELSAT 36 (IS-36)     
1 41747U 16053A   26161.56739133 -.00000007  00000+0  00000+0 0  9997
2 41747   0.0119   0.9491 0001854 332.4947 198.2350  1.00270452 35893
INSAT-3DR               
1 41752U 16054A   26161.56825800 -.00000059  00000+0  00000+0 0  9998
2 41752   0.0882  87.3235 0010517 186.7935 263.3666  1.00270370 35752
